STARLINK-36990          
1 68068U 26041AE  26064.97680472 -.00310003  47735-4 -42000-3 0  9990
2 68068  53.1611  81.2849 0002801 356.1667   3.9345 16.05492492   628
