[{"OBJECT_NAME":"STARLINK-36990","OBJECT_ID":"2026-041AE","EPOCH":"2026-03-05T23:26:35.927808","MEAN_MOTION":16.05492492,"ECCENTRICITY":0.00028016,"INCLINATION":53.1611,"RA_OF_ASC_NODE":81.2849,"ARG_OF_PERICENTER":356.1667,"MEAN_ANOMALY":3.9345,"EPHEMERIS_TYPE":0,"CLASSIFICATION_TYPE":"U","NORAD_CAT_ID":68068,"ELEMENT_SET_NO":999,"REV_AT_EPOCH":62,"BSTAR":-0.00042000498,"MEAN_MOTION_DOT":-0.00310003,"MEAN_MOTION_DDOT":4.7735466e-5}]
